# Made by eph2tle, compiled Jan 12 2025 12:34:55
# Run at Tue Jan 21 17:28:28 2025 UTC
#
#    The following TLEs (Two-Line Elements) were generated by fitting
# a numerically-integrated ephemeris,  based on the orbit given below,
# to the SDP4/SGP4 models.  Each TLE is good for the interval between
# its epoch and the epoch of the subsequent TLE (usually one day).
# The maximum deviation between the numerically integrated ephemerides
# and the TLE-based ephemeris, in kilometers,  is given for each TLE
# as the "worst residual".
#
#    This fitting is done using the 'eph2tle' code packaged with Find_Orb.
# The code has details on how the TLEs were computed :
#
#    https://github.com/Bill-Gray/find_orb/eph2tle.cpp
#
#    Be warned:  the error given is that between the numerically
# integrated ephems and the TLE model.  There will usually be at
# least some additional difference between the ephems and the actual
# motion of the satellite,  especially if the ephemerides are based
# on a short arc.  If the following orbital elements say something
# like "[based on] 10 observations 2015 Jan. 1-13",  and the TLEs
# are for 2015 May,  the extrapolation may be tenuous at best.  If
# your application requires a specific level of accuracy,  you may
# want to contact me;  I can give you some idea as to the fit of the
# underlying data (and possibly TLEs based on newer data).
#
#   You can usually find the underlying observational data,  and the
# fitted orbit,  residuals,  ephemerides,  and sometimes some comments
# about the object,  among the pages listed at
#
#    https://www.projectpluto.com/pluto/mpecs/pseudo.htm
#
#    Also,  if you use a TLE outside the "correct" time range (between
# its MJD and that of the next TLE),  all bets are off.  I've carefully
# computed and minimized the worst error over the "correct" time frame,
# but the ephemeris may (or may not) diverge wildly outside of it.
#
# Ephem range: 60691.000000 60721.000000 1.000000
# Created Tue Jan 21 12:28:04 2025
# Ephemeris start: 16 Jan 2025  0:00:00
# Ephemeris end:   15 Feb 2025  0:00:00
# Times are all TDT
# Positions/velocities are in equatorial J2000
# Orbital elements:  A11hSI4
#    Perigee 2025 Jan 23.807151 +/- 0.000946 TT = 19:22:17.8 (JD 2460699.307151)
# Epoch 2025 Jan 21.0 TT = JDT 2460696.5                           Find_Orb
# M 240.212337494 +/- 0.058           (J2000 equator)
# n  42.672322317 +/- 0.0189          Peri.  348.195492 +/- 0.007
# a175054.2478 +/- 51.8               Node   358.204318 +/- 0.00034
# e   0.92917959 +/- 4.04e-5          Incl.   35.868684 +/- 0.0020
# P   8.4362d                H 28.21  G  0.15   U 10.1
# q 12397.41300 +/- 10.1    Q 337711.0826 +/- 94.9
# From 11 observations 2025 Jan. 20-21 (31.4 hr); mean residual 0".124
#
# 1 NoradU COSPAR   Epoch.epoch     dn/dt/2  d2n/dt2/6 BSTAR    T El# C
# 2 NoradU Inclina RAAscNode Eccent  ArgPeri MeanAno  MeanMotion Rev# C

# Worst residual: 13.19 km
# MJD 60691.000000 (2025 Jan 16  0:00)
A11hSI4
1 99998U 25010F   25016.49919926  .00000000  00000-0  00000-0 0 25780
2 99998 035.9628 358.6057 9562607 347.5886 048.4453 00.12538633    08

# Worst residual: 129.84 km
# MJD 60692.000000 (2025 Jan 17  0:00)
A11hSI4
1 99998U 25010F   25017.49919926  .00000000  00000-0  00000-0 0 25781
2 99998 036.2968 358.3690 9567020 347.9300 091.7463 00.12390378    02

# Worst residual: 185.22 km
# MJD 60693.000000 (2025 Jan 18  0:00)
A11hSI4
1 99998U 25010F   25018.49919926  .00000000  00000-0  00000-0 0 25782
2 99998 036.7933 358.1012 9517794 348.9236 131.3277 00.12107453    01

# Worst residual: 92.40 km
# MJD 60694.000000 (2025 Jan 19  0:00)
A11hSI4
1 99998U 25010F   25019.49919926  .00000000  00000-0  00000-0 0 25783
2 99998 036.5302 358.2026 9405561 349.4099 172.2202 00.11950031    05

# Worst residual: 50.91 km
# MJD 60695.000000 (2025 Jan 20  0:00)
A11hSI4
1 99998U 25010F   25020.49919926  .00000000  00000-0  00000-0 0 25785
2 99998 036.2011 358.2929 9332682 349.3225 214.9694 00.11879392    03

# Worst residual: 23.99 km
# MJD 60696.000000 (2025 Jan 21  0:00)
A11hSI4
1 99998U 25010F   25021.49919926  .00000000  00000-0  00000-0 0 25786
2 99998 036.0439 358.3092 9299870 349.1568 257.8681 00.11828675    06

# Worst residual: 14.39 km
# MJD 60697.000000 (2025 Jan 22  0:00)
A11hSI4
1 99998U 25010F   25022.49919926  .00000000  00000-0  00000-0 0 25787
2 99998 035.9776 358.2978 9284933 349.0368 300.3871 00.11792880    04

# Worst residual: 20.34 km
# MJD 60698.000000 (2025 Jan 23  0:00)
A11hSI4
1 99998U 25010F   25023.49919926  .00000000  00000-0  00000-0 0 25788
2 99998 035.9720 358.2848 9275651 348.9598 342.6015 00.11814547    03

# Worst residual: 17.18 km
# MJD 60699.000000 (2025 Jan 24  0:00)
A11hSI4
1 99998U 25010F   25024.49919926  .00000000  00000-0  00000-0 0 25789
2 99998 035.9871 358.2381 9274324 348.9345 025.1712 00.11893132    02

# Worst residual: 15.94 km
# MJD 60700.000000 (2025 Jan 25  0:00)
A11hSI4
1 99998U 25010F   25025.49919926  .00000000  00000-0  00000-0 0 25780
2 99998 036.0292 358.1939 9283710 348.9071 067.5326 00.11864598    09

# Worst residual: 11.43 km
# MJD 60701.000000 (2025 Jan 26  0:00)
A11hSI4
1 99998U 25010F   25026.49919926  .00000000  00000-0  00000-0 0 25781
2 99998 036.0771 358.1550 9292453 348.9349 109.6899 00.11846405    02

# Worst residual: 10.29 km
# MJD 60702.000000 (2025 Jan 27  0:00)
A11hSI4
1 99998U 25010F   25027.49919926  .00000000  00000-0  00000-0 0 25782
2 99998 036.0878 358.1418 9294093 348.9977 151.7987 00.11835677    07

# Worst residual: 10.60 km
# MJD 60703.000000 (2025 Jan 28  0:00)
A11hSI4
1 99998U 25010F   25028.49919926  .00000000  00000-0  00000-0 0 25783
2 99998 036.0493 358.1473 9286940 349.0348 194.0997 00.11828021    03

# Worst residual: 20.33 km
# MJD 60704.000000 (2025 Jan 29  0:00)
A11hSI4
1 99998U 25010F   25029.49919926  .00000000  00000-0  00000-0 0 25784
2 99998 035.9917 358.1518 9275432 348.9961 236.7891 00.11807354    08

# Worst residual: 56.87 km
# MJD 60705.000000 (2025 Jan 30  0:00)
A11hSI4
1 99998U 25010F   25030.49919926  .00000000  00000-0  00000-0 0 25786
2 99998 035.9646 358.1459 9268094 348.8679 279.9058 00.11729625    00

# Worst residual: 189.15 km
# MJD 60706.000000 (2025 Jan 31  0:00)
A11hSI4
1 99998U 25010F   25031.49919926  .00000000  00000-0  00000-0 0 25787
2 99998 035.9848 358.1418 9277617 348.6222 323.2209 00.11381627    09

# Worst residual: 327.95 km
# MJD 60707.000000 (2025 Feb  1  0:00)
A11hSI4
1 99998U 25010F   25032.49919926  .00000000  00000-0  00000-0 0 25788
2 99998 036.0370 358.1543 9334897 349.4550 003.4448 00.10784145    00

# Worst residual: 82.29 km
# MJD 60708.000000 (2025 Feb  2  0:00)
A11hSI4
1 99998U 25010F   25033.49919926  .00000000  00000-0  00000-0 0 25789
2 99998 036.0889 358.1144 9282344 349.6609 046.5375 00.11631380    08

# Worst residual: 31.82 km
# MJD 60709.000000 (2025 Feb  3  0:00)
A11hSI4
1 99998U 25010F   25034.49919926  .00000000  00000-0  00000-0 0 25780
2 99998 036.0732 358.1243 9277649 349.4995 089.8787 00.11786814    03

# Worst residual: 11.11 km
# MJD 60710.000000 (2025 Feb  4  0:00)
A11hSI4
1 99998U 25010F   25035.49919926  .00000000  00000-0  00000-0 0 25781
2 99998 036.0853 358.1112 9282256 349.4426 132.7460 00.11821436    07

# Worst residual: 5.42 km
# MJD 60711.000000 (2025 Feb  5  0:00)
A11hSI4
1 99998U 25010F   25036.49919926  .00000000  00000-0  00000-0 0 25782
2 99998 036.1236 358.0863 9288691 349.4671 175.1646 00.11828312    03

# Worst residual: 11.72 km
# MJD 60712.000000 (2025 Feb  6  0:00)
A11hSI4
1 99998U 25010F   25037.49919926  .00000000  00000-0  00000-0 0 25783
2 99998 036.1374 358.0720 9288183 349.5244 217.3191 00.11831256    06

# Worst residual: 15.24 km
# MJD 60713.000000 (2025 Feb  7  0:00)
A11hSI4
1 99998U 25010F   25038.49919926  .00000000  00000-0  00000-0 0 25784
2 99998 036.1006 358.0662 9277268 349.5271 259.5223 00.11830946    04

# Worst residual: 19.47 km
# MJD 60714.000000 (2025 Feb  8  0:00)
A11hSI4
1 99998U 25010F   25039.49919926  .00000000  00000-0  00000-0 0 25785
2 99998 036.0487 358.0551 9262879 349.4164 302.0199 00.11797969    08

# Worst residual: 100.01 km
# MJD 60715.000000 (2025 Feb  9  0:00)
A11hSI4
1 99998U 25010F   25040.49919926  .00000000  00000-0  00000-0 0 25787
2 99998 036.0803 358.0608 9273413 349.5086 344.4639 00.11668717    00

# Worst residual: 30.48 km
# MJD 60716.000000 (2025 Feb 10  0:00)
A11hSI4
1 99998U 25010F   25041.49919926  .00000000  00000-0  00000-0 0 25788
2 99998 036.1292 357.9609 9277049 349.4907 026.4660 00.11725108    01

# Worst residual: 32.69 km
# MJD 60717.000000 (2025 Feb 11  0:00)
A11hSI4
1 99998U 25010F   25042.49919926  .00000000  00000-0  00000-0 0 25789
2 99998 036.2504 357.8371 9292651 349.3954 068.3935 00.11724491    04

# Worst residual: 89.07 km
# MJD 60718.000000 (2025 Feb 12  0:00)
A11hSI4
1 99998U 25010F   25043.49919926  .00000000  00000-0  00000-0 0 25780
2 99998 036.6331 357.5806 9333501 349.3060 110.2254 00.11746265    08

# Worst residual: 272.46 km
# MJD 60719.000000 (2025 Feb 13  0:00)
A11hSI4
1 99998U 25010F   25044.49919926  .00000000  00000-0  00000-0 0 25781
2 99998 038.0822 356.9004 9455732 349.5041 150.2623 00.11786483    04

# Worst residual: 644.42 km
# MJD 60720.000000 (2025 Feb 14  0:00)
A11hSI4
1 99998U 25010F   25045.49919926  .00000000  00000-0  00000-0 0 25782
2 99998 041.4746 355.7671 9603482 351.0112 179.1841 00.11812598    07
Avg worst resid: 84.54 km
Worst residual in entire run: 644.42 km on MJD 60720.0
       1     3     10    30    100   300   1K    3K    10K   km
     0     0     1    14     8     5     2     0     0     0
